STARLINK-35358          
1 66564U 25268H   26068.18038737  .00033670  00000+0  12274-2 0  9995
2 66564  43.0022 349.7872 0001758 257.8104 102.2551 15.27581703 17887
KUIPER-00226            
1 67785U 26030X   26068.62629313  .00046834  00000+0  15530-2 0  9998
2 67785  51.8814 220.1252 0017713  64.2781 296.0030 15.30655594  5078
